              M50 Cartesian                         M50 Keplerian  
    -----------------------------------       --------------------------------
     X    =        1790902.29                 A    =         6788578.68  meter
     Y    =       -6542302.57  meter          E    =           .0010538
     Z    =        -140928.96                 I    =           52.01528
     XDOT =       4520.992616                 Wp   =          126.59852
     YDOT =       1360.867911  meter/sec      RA   =          104.37962  deg
     ZDOT =      -6041.216282                 TA   =           54.91169
                                              MA   =           54.81292
                                              Ha   =            220.829  n.mi
                                              Hp   =            214.175
 
              M50 Cartesian                         J2K Cartesian  
    -----------------------------------       --------------------------------
     X    =        5875663.67                 X    =         1864611.41
     Y    =      -21464247.28  feet           Y    =        -6521863.39  meter
     Z    =        -462365.35                 Z    =         -132049.32
     XDOT =      14832.652938                 XDOT =        4534.784915
     YDOT =       4464.789735  feet/sec       YDOT =        1411.501052  meter/sec
     ZDOT =     -19820.263393                 ZDOT =       -6019.220915
 
              TDR Cartesian                         TDR Cartesian  
    -----------------------------------       --------------------------------
     X    =         370161.58                 X    =          112825.25
     Y    =      -22251639.31  feet           Y    =        -6782299.66  meter
     Z    =        -422664.13                 Z    =         -128828.03
     XDOT =      13976.673854                 XDOT =        4260.090191
     YDOT =        585.489671  feet/sec       YDOT =         178.457252  meter/sec
     ZDOT =     -19724.903783                 ZDOT =       -6012.150673
  
  
    The mean element set is posted at the UTC for which position is
    just north of the next ascending node relative to the above
    vector time
 
 
    TWO LINE MEAN ELEMENT SET
  
    ISS
    1 25544U 98067A   16087.55925766  .00016717  00000-0  10270-3 0  9116
    2 25544  51.6399 105.1432 0002207   4.6109 355.5064 15.54383645 32289
  
  
    Satellite: ISS
    Catalog Number: 25544
    Epoch time:      16087.55925766   =   yrday.fracday
    Element set:     911
    Inclination:       51.6399  deg
    RA of node:       105.1432  deg
    Eccentricity:     .0002207     
    Arg of perigee:     4.6109  deg
    Mean anomaly:     355.5064  deg
    Mean motion:   15.54383645  rev/day
    Decay rate:    1.67170E-04  rev/day^2
    Epoch rev:            3228
    Checksum:              309
 
 
    Coasting Arc #13 (Orbit 3243)
    ---------------------------------------
 
    Vector Time (GMT): 2016/088/12:39:20.524
    Vector Time (MET): N/A
    Weight (LBS)     : 890089.9
 
              M50 Cartesian                         M50 Keplerian  
    -----------------------------------       --------------------------------
     X    =       -2501982.18                 A    =         6786938.82  meter
     Y    =        6006917.62  meter          E    =           .0015104
     Z    =        1900226.22                 I    =           52.01737
     XDOT =      -3903.672854                 Wp   =           59.47172
     YDOT =      -3421.470620  meter/sec      RA   =           99.43263  deg
     ZDOT =       5650.156803                 TA   =          321.36090
                                              MA   =          321.46887
                                              Ha   =            220.781  n.mi
                                              Hp   =            214.103
 
              M50 Cartesian                         J2K Cartesian  
    -----------------------------------       --------------------------------
     X    =       -8208602.94                 X    =        -2578197.63
     Y    =       19707734.98  feet           Y    =         5978512.85  meter
     Z    =        6234337.99                 Z    =         1887886.37
     XDOT =     -12807.325635                 XDOT =       -3892.569238
     YDOT =     -11225.297311  feet/sec       YDOT =       -3465.061403  meter/sec
     ZDOT =      18537.259853                 ZDOT =        5631.220920
 
              TDR Cartesian                         TDR Cartesian  
    -----------------------------------       --------------------------------
     X    =       -2737616.40                 X    =         -834425.48
     Y    =       21188677.26  feet           Y    =         6458308.83  meter
     Z    =        6179673.35                 Z    =         1883564.44
     XDOT =     -13890.918374                 XDOT =       -4233.951920
     YDOT =      -7202.180136  feet/sec       YDOT =       -2195.224505  meter/sec
     ZDOT =      18455.550633                 ZDOT =        5625.251833
  
  
    The mean element set is posted at the UTC for which position is
    just north of the next ascending node relative to the above
    vector time
 
 
    TWO LINE MEAN ELEMENT SET
  
    ISS
    1 25544U 98067A   16088.58790915  .00016717  00000-0  10270-3 0  9127
    2 25544  51.6399 100.0132 0002188   4.8561 355.2613 15.54434706 32442
  
  
    Satellite: ISS
    Catalog Number: 25544
    Epoch time:      16088.58790915   =   yrday.fracday
    Element set:     912
    Inclination:       51.6399  deg
    RA of node:       100.0132  deg
    Eccentricity:     .0002188     
    Arg of perigee:     4.8561  deg
    Mean anomaly:     355.2613  deg
    Mean motion:   15.54434706  rev/day
    Decay rate:    1.67170E-04  rev/day^2
    Epoch rev:            3244
    Checksum:              303
 
 
    Coasting Arc #14 (Orbit 3258)
    ---------------------------------------
 
    Vector Time (GMT): 2016/089/12:39:20.524
    Vector Time (MET): N/A
    Weight (LBS)     : 890089.9
 
              M50 Cartesian                         M50 Keplerian  
    -----------------------------------       --------------------------------
     X    =        3111426.38                 A    =         6783407.21  meter
     Y    =       -4927307.05  meter          E    =           .0005900
     Z    =       -3479144.58                 I    =           52.00930
     XDOT =       3182.952662                 Wp   =           65.70720
     YDOT =       5246.335878  meter/sec      RA   =           94.47718  deg
     ZDOT =      -4587.283153                 TA   =          154.86739
                                              MA   =          154.83867
                                              Ha   =            220.855  n.mi
                                              Hp   =            214.088
 
              M50 Cartesian                         J2K Cartesian  
    -----------------------------------       --------------------------------
     X    =       10208091.79                 X    =         3183193.80
     Y    =      -16165705.53  feet           Y    =        -4892112.06  meter
     Z    =      -11414516.33                 Z    =        -3463855.17
     XDOT =      10442.758078                 XDOT =        3146.333459
     YDOT =      17212.388051  feet/sec       YDOT =        5281.724587  meter/sec
     ZDOT =     -15050.141579                 ZDOT =       -4571.910506
 
              TDR Cartesian                         TDR Cartesian  
    -----------------------------------       --------------------------------
     X    =        5319482.72                 X    =         1621378.33
     Y    =      -18405717.05  feet           Y    =        -5610062.56  meter
     Z    =      -11347204.04                 Z    =        -3458627.79
     XDOT =      13612.223999                 XDOT =        4149.005875
     YDOT =      13164.328906  feet/sec       YDOT =        4012.487451  meter/sec
     ZDOT =     -14984.241496                 ZDOT =       -4567.196808
  
  
    The mean element set is posted at the UTC for which position is
    just north of the next ascending node relative to the above
    vector time
 
 
    TWO LINE MEAN ELEMENT SET
  
    ISS
    1 25544U 98067A   16089.55225807  .00016717  00000-0  10270-3 0  9139
    2 25544  51.6394  95.2024 0002295  10.3882 349.7318 15.54421803 32599
  
  
    Satellite: ISS
    Catalog Number: 25544
    Epoch time:      16089.55225807   =   yrday.fracday
    Element set:     913
    Inclination:       51.6394  deg
    RA of node:        95.2024  deg
    Eccentricity:     .0002295     
    Arg of perigee:    10.3882  deg
    Mean anomaly:     349.7318  deg
    Mean motion:   15.54421803  rev/day
    Decay rate:    1.67170E-04  rev/day^2
    Epoch rev:            3259
    Checksum:              312
 
 
    Coasting Arc #15 (Orbit 3274)
    ---------------------------------------
 
    Vector Time (GMT): 2016/090/12:39:20.524
    Vector Time (MET): N/A
    Weight (LBS)     : 890089.9
 
              M50 Cartesian                         M50 Keplerian  
    -----------------------------------       --------------------------------
     X    =       -3589653.24                 A    =         6779342.53  meter
     Y    =        3401160.50  meter          E    =           .0008164
     Z    =        4631080.71                 I    =           51.99749
     XDOT =      -2404.783140                 Wp   =           98.24385
     YDOT =      -6637.623455  meter/sec      RA   =           89.51145  deg
     ZDOT =       3005.158147                 TA   =          321.92264
                                              MA   =          321.98030
                                              Ha   =            220.931  n.mi
                                              Hp   =            213.953
 
